NORAD_CAT_ID,OBJECT_NAME,OBJECT_TYPE,EPOCH,MEAN_MOTION,ECCENTRICITY,INCLINATION,RA_OF_ASC_NODE,ARG_OF_PERICENTER,MEAN_ANOMALY,BSTAR,MEAN_MOTION_DOT,MEAN_MOTION_DDOT,TLE_LINE0,TLE_LINE1,TLE_LINE2,SEMIMAJOR_AXIS,PERIOD,APOGEE,PERIGEE,DECAYED
49455.0,STARLINK-3145,PAYLOAD,2022-05-02 14:00:01,15.08825111,0.0001945,53.2178,55.8518,37.0784,288.3825,0.0012337,0.00019393,0.0,0 STARLINK-3145,1 49455U 21104AZ  22122.58334491  .00019393  00000-0  12337-2 0  9994,2 49455  53.2178  55.8518 0001945  37.0784 288.3825 15.08825111  3590,6917.926,95.438,541.136,538.445,0.0
49455.0,STARLINK-3145,PAYLOAD,2022-05-02 22:00:01,15.08866103,0.0001995,53.2179,54.3558,40.5008,296.6035,-0.0034691,-0.00055117,0.0,0 STARLINK-3145,1 49455U 21104AZ  22122.91668981 -.00055117  00000-0 -34691-2 0  9998,2 49455  53.2179  54.3558 0001995  40.5008 296.6035 15.08866103 27476,6917.801,95.436,541.0459999999998,538.286,0.0
49455.0,STARLINK-3145,PAYLOAD,2022-05-03 14:00:01,15.0882424,0.0002061,53.2176,51.363,41.7018,318.5237,0.00183,0.00028944,0.0,0 STARLINK-3145,1 49455U 21104AZ  22123.58334491  .00028944  00000-0  18300-2 0  9993,2 49455  53.2176  51.3630 0002061  41.7018 318.5237 15.08824240 27575,6917.929,95.439,541.219,538.368,0.0
49455.0,STARLINK-3145,PAYLOAD,2022-05-03 22:00:00,15.08864236,0.0002114,53.2176,49.8673,43.3753,328.4335,-0.00090907,-0.00014737,0.0,0 STARLINK-3145,1 49455U 21104AZ  22123.91667824 -.00014737  00000-0 -90907-3 0  9990,2 49455  53.2176  49.8673 0002114  43.3753 328.4335 15.08864236  3603,6917.806,95.436,541.134,538.2090000000002,0.0
49455.0,STARLINK-3145,PAYLOAD,2022-05-04 14:00:01,15.08834089,0.000201,53.2175,46.874,40.644,354.4119,0.001805,0.00028551,0.0,0 STARLINK-3145,1 49455U 21104AZ  22124.58334491  .00028551  00000-0  18050-2 0  9990,2 49455  53.2175  46.8740 0002010  40.6440 354.4119 15.08834089 27734,6917.898,95.438,541.154,538.373,0.0
49455.0,STARLINK-3145,PAYLOAD,2022-05-04 22:00:01,15.08863902,0.000206,53.2177,45.3783,40.6518,6.067,-0.0025014,-0.00039905,0.0,0 STARLINK-3145,1 49455U 21104AZ  22124.91668981 -.00039905  00000-0 -25014-2 0  9996,2 49455  53.2177  45.3783 0002060  40.6518   6.0670 15.08863902  3606,6917.807,95.436,541.097,538.247,0.0
49455.0,STARLINK-3145,PAYLOAD,2022-05-05 06:00:00,15.08834625,0.0002201,53.2175,43.8831,34.7892,23.471,0.0012195,0.00019171,0.0,0 STARLINK-3145,1 49455U 21104AZ  22125.25001157  .00019171  00000-0  12195-2 0  9997,2 49455  53.2175  43.8831 0002201  34.7892  23.4710 15.08834625 27836,6917.897,95.438,541.284,538.239,0.0
49455.0,STARLINK-3145,PAYLOAD,2022-05-05 14:00:01,15.08815696,0.000199,53.2179,42.3849,37.9673,31.9016,0.0011776,0.00018491,0.0,0 STARLINK-3145,1 49455U 21104AZ  22125.58334491  .00018491  00000-0  11776-2 0  9991,2 49455  53.2179  42.3849 0001990  37.9673  31.9016 15.08815696  3574,6917.955,95.439,541.196,538.443,0.0
49455.0,STARLINK-3145,PAYLOAD,2022-05-05 22:00:00,15.08835289,0.0002131,53.218,40.8893,40.4968,40.9446,-0.0020098,-0.00032129,0.0,0 STARLINK-3145,1 49455U 21104AZ  22125.91667824 -.00032129  00000-0 -20098-2 0  9990,2 49455  53.2180  40.8893 0002131  40.4968  40.9446 15.08835289 27935,6917.895,95.438,541.234,538.286,0.0
49455.0,STARLINK-3145,PAYLOAD,2022-05-06 14:00:01,15.08809575,0.0002098,53.2181,37.8959,41.7597,62.8345,0.0030211,0.00048081,0.0,0 STARLINK-3145,1 49455U 21104AZ  22126.58334491  .00048081  00000-0  30211-2 0  9995,2 49455  53.2181  37.8959 0002098  41.7597  62.8345 15.08809575 28031,6917.973000000001,95.439,541.29,538.387,0.0
49455.0,STARLINK-3145,PAYLOAD,2022-05-07 06:00:02,15.08824354,0.0002282,53.218,34.9048,37.4132,90.4272,0.0010899,0.00017093,0.0,0 STARLINK-3145,1 49455U 21104AZ  22127.25002315  .00017093  00000-0  10899-2 0  9996,2 49455  53.2180  34.9048 0002282  37.4132  90.4272 15.08824354 28138,6917.928000000001,95.439,541.372,538.215,0.0
49455.0,STARLINK-3145,PAYLOAD,2022-05-07 14:00:01,15.08810613,0.0002053,53.2182,33.4068,41.4381,97.93,0.0030833,0.00049086,0.0,0 STARLINK-3145,1 49455U 21104AZ  22127.58334491  .00049086  00000-0  30833-2 0  9992,2 49455  53.2182  33.4068 0002053  41.4381  97.9300 15.08810613  3605,6917.97,95.439,541.255,538.415,0.0
49455.0,STARLINK-3145,PAYLOAD,2022-05-07 22:00:00,15.08851116,0.0002176,53.2185,31.9115,41.591,109.3504,-0.0013087,-0.00021063,0.0,0 STARLINK-3145,1 49455U 21104AZ  22127.91667824 -.00021063  00000-0 -13087-2 0  9997,2 49455  53.2185  31.9115 0002176  41.5910 109.3504 15.08851116  3606,6917.846,95.437,541.217,538.206,0.0
49455.0,STARLINK-3145,PAYLOAD,2022-05-08 06:00:00,15.08853229,0.0002262,53.218,30.4156,38.0071,124.5362,-0.0014061,-0.00022606,0.0,0 STARLINK-3145,1 49455U 21104AZ  22128.25001157 -.00022606  00000-0 -14061-2 0  9993,2 49455  53.2180  30.4156 0002262  38.0071 124.5362 15.08853229 28284,6917.84,95.437,541.27,538.14,0.0
49455.0,STARLINK-3145,PAYLOAD,2022-05-08 14:00:01,15.08804946,0.0001986,53.2181,28.9176,41.2549,132.8994,0.0029875,0.00047534,0.0,0 STARLINK-3145,1 49455U 21104AZ  22128.58334491  .00047534  00000-0  29875-2 0  9993,2 49455  53.2181  28.9176 0001986  41.2549 132.8994 15.08804946  3599,6917.988,95.44,541.226,538.479,0.0
49455.0,STARLINK-3145,PAYLOAD,2022-05-08 22:00:00,15.08847868,0.000211,53.2183,27.4226,41.2455,144.4839,-0.0010943,-0.00017666,0.0,0 STARLINK-3145,1 49455U 21104AZ  22128.91667824 -.00017666  00000-0 -10943-2 0  9990,2 49455  53.2183  27.4226 0002110  41.2455 144.4839 15.08847868  3606,6917.856,95.437,541.181,538.262,0.0
49455.0,STARLINK-3145,PAYLOAD,2022-05-09 06:00:00,15.08845162,0.0002205,53.2178,25.9265,38.7511,158.5762,0.0010788,0.00016925,0.0,0 STARLINK-3145,1 49455U 21104AZ  22129.25001157  .00016925  00000-0  10788-2 0  9991,2 49455  53.2178  25.9265 0002205  38.7511 158.5762 15.08845162 28439,6917.865,95.437,541.255,538.2040000000002,0.0
49455.0,STARLINK-3145,PAYLOAD,2022-05-09 14:00:01,15.08847574,0.0001971,53.2179,24.4286,43.0325,165.9721,0.00049211,7.554e-05,0.0,0 STARLINK-3145,1 49455U 21104AZ  22129.58335648  .00007554  00000-0  49211-3 0  9994,2 49455  53.2179  24.4286 0001971  43.0325 165.9721 15.08847574  3561,6917.857,95.437,541.086,538.359,0.0
49455.0,STARLINK-3145,PAYLOAD,2022-05-09 22:00:00,15.08848405,0.0002062,53.2179,22.9337,40.8491,179.7008,-0.00082051,-0.00013326,0.0,0 STARLINK-3145,1 49455U 21104AZ  22129.91667824 -.00013326  00000-0 -82051-3 0  9990,2 49455  53.2179  22.9337 0002062  40.8491 179.7008 15.08848405  3567,6917.855,95.437,541.146,538.293,0.0
49455.0,STARLINK-3145,PAYLOAD,2022-05-10 00:00:00,15.08841244,0.0002126,53.2179,22.56,40.0974,273.3542,0.00012248,1.662e-05,0.0,0 STARLINK-3145,1 49455U 21104AZ  22130.00001157  .00001662  00000-0  12248-3 0  9992,2 49455  53.2179  22.5600 0002126  40.0974 273.3542 15.08841244 28548,6917.877,95.437,541.212,538.271,0.0
49455.0,STARLINK-3145,PAYLOAD,2022-05-10 14:00:01,15.08742903,0.0002104,53.2174,19.9441,41.2131,202.5284,0.0085277,0.0013773,0.0,0 STARLINK-3145,1 49455U 21104AZ  22130.58334491  .00137730  00000-0  85277-2 0  9992,2 49455  53.2174  19.9441 0002104  41.2131 202.5284 15.08742903 28639,6918.177,95.444,541.498,538.587,0.0
49455.0,STARLINK-3145,PAYLOAD,2022-05-10 18:00:00,15.08842564,0.0001933,53.2178,19.192,43.2287,26.2938,-2.6417e-05,-7.09e-06,0.0,0 STARLINK-3145,1 49455U 21104AZ  22130.75001157 -.00000709  00000-0 -26417-4 0  9991,2 49455  53.2178  19.1920 0001933  43.2287  26.2938 15.08842564  3599,6917.873000000001,95.437,541.075,538.4,0.0
49455.0,STARLINK-3145,PAYLOAD,2022-05-11 22:00:00,15.08840709,0.0002069,53.2176,13.956,39.3206,250.7745,-0.00049521,-8.161e-05,0.0,0 STARLINK-3145,1 49455U 21104AZ  22131.91667824 -.00008161  00000-0 -49521-3 0  9999,2 49455  53.2176  13.9560 0002069  39.3206 250.7745 15.08840709 28830,6917.878000000002,95.438,541.175,538.312,0.0
49455.0,STARLINK-3145,PAYLOAD,2022-05-12 14:00:01,15.0884011,0.0001923,53.2177,10.9617,41.1797,272.1231,0.00080557,0.00012556,0.0,0 STARLINK-3145,1 49455U 21104AZ  22132.58334491  .00012556  00000-0  80557-3 0  9999,2 49455  53.2177  10.9617 0001923  41.1797 272.1231 15.08840110  1302,6917.88,95.438,541.075,538.415,0.0
49455.0,STARLINK-3145,PAYLOAD,2022-05-12 20:00:01,15.08854148,0.0002015,53.218,9.8407,39.0735,192.9328,-0.00060851,-9.964e-05,0.0,0 STARLINK-3145,1 49455U 21104AZ  22132.83334491 -.00009964  00000-0 -60851-3 0  9993,2 49455  53.2180   9.8407 0002015  39.0735 192.9328 15.08854148 28975,6917.837,95.437,541.096,538.308,0.0
49455.0,STARLINK-3145,PAYLOAD,2022-05-12 22:00:00,15.08849952,0.0002087,53.2179,9.4671,37.6216,287.2876,-6.4567e-05,-1.316e-05,0.0,0 STARLINK-3145,1 49455U 21104AZ  22132.91667824 -.00001316  00000-0 -64567-4 0  9993,2 49455  53.2179   9.4671 0002087  37.6216 287.2876 15.08849952  1300,6917.85,95.437,541.159,538.271,0.0
49455.0,STARLINK-3145,PAYLOAD,2022-05-13 14:00:01,15.08825124,0.000194,53.2181,6.4727,40.1362,307.9912,0.00052665,8.1e-05,0.0,0 STARLINK-3145,1 49455U 21104AZ  22133.58334491  .00008100  00000-0  52665-3 0  9999,2 49455  53.2181   6.4727 0001940  40.1362 307.9912 15.08825124  1306,6917.926,95.438,541.133,538.4490000000002,0.0
49455.0,STARLINK-3145,PAYLOAD,2022-05-13 22:00:00,15.088254,0.0002179,53.2182,4.9781,38.7084,321.0012,-8.5671e-05,-1.651e-05,0.0,0 STARLINK-3145,1 49455U 21104AZ  22133.91667824 -.00001651  00000-0 -85671-4 0  9995,2 49455  53.2182   4.9781 0002179  38.7084 321.0012 15.08825400 29135,6917.925,95.438,541.297,538.283,0.0
49455.0,STARLINK-3145,PAYLOAD,2022-05-14 14:00:01,15.08812661,0.0001948,53.2183,1.9838,41.0509,341.8336,0.0026893,0.0004274,0.0,0 STARLINK-3145,1 49455U 21104AZ  22134.58334491  .00042740  00000-0  26893-2 0  9991,2 49455  53.2183   1.9838 0001948  41.0509 341.8336 15.08812661  1301,6917.964,95.439,541.177,538.481,0.0
49455.0,STARLINK-3145,PAYLOAD,2022-05-14 22:00:00,15.08849659,0.0002123,53.2183,0.4893,36.4411,358.0096,-0.0017389,-0.00027864,0.0,0 STARLINK-3145,1 49455U 21104AZ  22134.91667824 -.00027864  00000-0 -17389-2 0  9999,2 49455  53.2183   0.4893 0002123  36.4411 358.0096 15.08849659  1302,6917.851,95.437,541.185,538.247,0.0
